STARLINK-31322          
1 59168U 24044S   24209.99008517 -.00000350  00000+0 -35646-5 0  9997
2 59168  43.0023 193.4551 0000843 267.9893  92.0861 15.25906588 23460
STARLINK-31329          
1 59169U 24044T   24210.25680085  .00000130  00000+0  14827-4 0  9996
2 59169  43.0040 192.0164 0001176 261.4178  98.6540 15.25910152 23288
STARLINK-31340          
1 59170U 24044U   24210.21872895  .00028534  00000+0  67715-3 0  9997
2 59170  43.0000 184.8383 0017237 141.1744 219.0354 15.41022528 23423
STARLINK-31344          
1 59171U 24044V   24210.25454663 -.00001311  00000+0 -40324-4 0  9995
2 59171  43.0012 191.9972 0000697 261.2132  98.8640 15.25898010 23494
STARLINK-31348          
1 59172U 24044W   24210.19386854 -.00000683  00000+0 -90845-5 0  9990
2 59172  43.0016 175.9753 0001804 261.6709  98.3943 15.40692743 23418
STARLINK-31289          
1 59173U 24044X   24209.94308718 -.00000885  00000+0 -24014-4 0  9993
2 59173  43.0003 193.9726 0000880 283.3486  76.7267 15.25902200 23459
STARLINK-31283          
1 59174U 24044Y   24209.91667824  .00012761  00000+0  31216-3 0  9992
2 59174  42.9995 177.8149 0001235 265.8925 255.4012 15.40707915  5969
STARLINK-31439          
1 59178U 24045A   24209.39544334  .00000651  00000+0  22863-4 0  9993
2 59178  43.0013 209.5745 0001467 289.4602  70.6096 15.40687464 22618
STARLINK-31410          
1 59179U 24045B   24209.42891036 -.00000232  00000+0  17117-5 0  9995
2 59179  43.0028 208.9562 0001189 262.9956  97.0766 15.40685301 22620
STARLINK-31395          
1 59180U 24045C   24209.41771446 -.00003690  00000+0 -81232-4 0  9998
2 59180  43.0003 208.8704 0001322 274.4448  85.6257 15.40660008 22620
STARLINK-31486          
1 59181U 24045D   24210.16889401  .00003370  00000+0  87911-4 0  9997
2 59181  43.0013 205.0529 0001675 237.6849 122.3845 15.40698487 22739
STARLINK-31411          
1 59182U 24045E   24209.96769476 -.00001031  00000+0 -17411-4 0  9995
2 59182  42.9998 206.1195 0001779 249.1544 110.9122 15.40690715 22700
STARLINK-31347          
1 59183U 24045F   24210.04792775  .00016096  00000+0  39145-3 0  9997
2 59183  42.9999 204.1119 0001793 261.8501  98.2152 15.40725020 22750
STARLINK-31382          
1 59184U 24045G   24209.42442222 -.00001453  00000+0 -27529-4 0  9994
2 59184  43.0000 208.9203 0001539 259.1494 100.9189 15.40692769 22621
STARLINK-31394          
1 59185U 24045H   24209.41084895 -.00004620  00000+0 -10348-3 0  9991
2 59185  43.0014 207.9728 0001442 270.3370  89.7321 15.40680274 22630
STARLINK-31403          
1 59186U 24045J   24208.68597001  .00092472  00000+0  11161-2 0  9991
2 59186  42.9970 198.8101 0000997 191.9479 168.1361 15.59738014 22570
STARLINK-31514          
1 59187U 24045K   24209.42665265 -.00004140  00000+0 -91898-4 0  9997
2 59187  42.9999 208.9364 0001618 258.7266 101.3409 15.40697664 22626
STARLINK-31478          
1 59188U 24045L   24210.25001157 -.00010349  00000+0 -24092-3 0  9994
2 59188  43.0000 203.5025 0001036 282.6908 255.6480 15.40687557 22756
STARLINK-31498          
1 59189U 24045M   24210.11513593  .00007321  00000+0  18231-3 0  9994
2 59189  42.9991 204.6376 0001155 252.6883 107.3847 15.40706425 22730
STARLINK-31563          
1 59190U 24045N   24209.70390073  .00000525  00000+0  19837-4 0  9998
2 59190  43.0025 207.5781 0001259 262.6922  97.3791 15.40694742 22660
STARLINK-31551          
1 59191U 24045P   24209.38199438 -.00000161  00000+0  34054-5 0  9991
2 59191  43.0006 209.4654 0001637 259.9635 100.1037 15.40693906 22612
STARLINK-31536          
1 59192U 24045Q   24210.25001157 -.00053888  00000+0 -12902-2 0  9990
2 59192  42.9998 203.5278 0001193 279.7329 246.1502 15.40739001 22755
STARLINK-31548          
1 59193U 24045R   24209.41993605  .00003378  00000+0  88056-4 0  9997
2 59193  43.0002 208.8844 0000310 221.2661 138.8172 15.40706839 22621
STARLINK-31542          
1 59194U 24045S   24209.38871511  .00001222  00000+0  36537-4 0  9998
2 59194  43.0011 209.5163 0001973 264.5292  95.5340 15.40692785 22619
STARLINK-31554          
1 59195U 24045T   24209.99669733 -.00001644  00000+0 -32125-4 0  9996
2 59195  43.0009 205.4727 0001367 260.1229  99.9473 15.40680478 22719
STARLINK-31558          
1 59196U 24045U   24210.16440851  .00000136  00000+0  10516-4 0  9999
2 59196  42.9991 205.0192 0001382 258.2068 101.8633 15.40720197 22709
STARLINK-31275          
1 59197U 24045V   24210.00563347  .00002477  00000+0  66543-4 0  9990
2 59197  43.0007 205.5400 0001401 263.9404  96.1293 15.40695238 22712
STARLINK-31590          
1 59198U 24045W   24210.11737383  .00012843  00000+0  31392-3 0  9997
2 59198  42.9956 204.6573 0000285 112.2743 247.8143 15.40725413 22736
STARLINK-31567          
1 59199U 24045X   24209.69718487 -.00000023  00000+0  67014-5 0  9993
2 59199  42.9990 207.5247 0000529 270.6611  89.4185 15.40692580 22665
STARLINK-31503          
1 59200U 24045Y   24209.43339716 -.00001574  00000+0 -30432-4 0  9998
2 59200  43.0046 208.9859 0001871 270.1966  89.8676 15.40688605 22623
STARLINK-31603          
1 59201U 24046A   24209.90075983  .00001102  00000+0  37529-4 0  9994
2 59201  53.1599  21.0019 0000866 106.5347 253.5753 15.39620881 22434
STARLINK-31602          
1 59202U 24046B   24209.91926974 -.00003179  00000+0 -69571-4 0  9991
2 59202  53.1639  20.4030 0001403  83.6463 276.4701 15.39595677 22451
STARLINK-31577          
1 59203U 24046C   24209.91667824  .00084225  00000+0  20940-2 0  9992
2 59203  53.1606  20.6781 0001210  52.3865 162.8780 15.39596945  5956
STARLINK-31522          
1 59204U 24046D   24209.50232771 -.00001212  00000+0 -20343-4 0  9993
2 59204  53.1622  22.7817 0000825  83.3094 276.8005 15.39609014 22606
STARLINK-31586          
1 59205U 24046E   24209.52081119 -.00001244  00000+0 -21151-4 0  9997
2 59205  53.1612  22.1832 0001184  96.0782 264.0357 15.39601513 22617
STARLINK-31247          
1 59206U 24046F   24209.90099032 -.00002834  00000+0 -60876-4 0  9996
2 59206  53.1589  20.2849 0000527  65.2622 294.8438 15.39639454 22558
STARLINK-31591          
1 59207U 24046G   24210.16529748  .00001536  00000+0  48360-4 0  9999
2 59207  53.1590  19.0959 0001339  69.6912 290.4237 15.39628715 22491
STARLINK-31576          
1 59208U 24046H   24209.20981593  .00001549  00000+0  48683-4 0  9995
2 59208  53.1634  23.7948 0000461 154.7669 205.3358 15.39616513 22336
STARLINK-31601          
1 59209U 24046J   24210.19317971 -.00002467  00000+0 -51718-4 0  9994
2 59209  53.1601  19.2673 0002379  90.2204 269.9074 15.39600629 22540
STARLINK-31520          
1 59210U 24046K   24209.97021335  .00001350  00000+0  43709-4 0  9995
2 59210  53.1612  20.0046 0000737 171.2454 188.8564 15.39623362 22464
STARLINK-31496          
1 59211U 24046L   24209.83110464  .00000322  00000+0  18017-4 0  9995
2 59211  53.1574  20.5604 0000553  93.0868 267.0200 15.39619905 22446
STARLINK-31492          
1 59212U 24046M   24210.19272499  .00001586  00000+0  49602-4 0  9991
2 59212  53.1625  18.5506 0001237  87.7659 272.3487 15.39630070 22464
STARLINK-31517          
1 59213U 24046N   24209.20086729  .00002408  00000+0  70149-4 0  9995
2 59213  53.1610  23.7667 0001281  97.8093 262.3057 15.39629121 22331
STARLINK-31604          
1 59214U 24046P   24210.17423791  .00002535  00000+0  73288-4 0  9996
2 59214  53.1584  19.1450 0000145 146.4888 213.6126 15.39636587 22499
STARLINK-31434          
1 59215U 24046Q   24210.19779878  .00003068  00000+0  86627-4 0  9992
2 59215  53.1557  19.2980 0001445  78.5348 281.5819 15.39633838 22599
STARLINK-31417          
1 59216U 24046R   24209.95207078  .00000928  00000+0  33156-4 0  9994
2 59216  53.1614  20.6073 0000829 119.2845 240.8243 15.39628942 22547
STARLINK-31499          
1 59217U 24046S   24210.18387403 -.00004775  00000+0 -10954-3 0  9999
2 59217  53.1602  19.2097 0001044  86.8253 273.2871 15.39604378 22529
STARLINK-31421          
1 59218U 24046T   24209.50687389 -.00001985  00000+0 -39663-4 0  9999
2 59218  53.1651  22.0991 0001069 115.1998 244.9118 15.39616685 22600
STARLINK-31518          
1 59219U 24046U   24210.17922396  .00000811  00000+0  30255-4 0  9998
2 59219  53.1586  19.1786 0001498  75.0429 285.0741 15.39631652 22492
STARLINK-31523          
1 59220U 24046V   24210.16961282  .00000960  00000+0  33996-4 0  9996
2 59220  53.1603  19.1181 0001484  90.2605 269.8570 15.39613956 22489
STARLINK-31516          
1 59221U 24046W   24209.92884912  .00002180  00000+0  64420-4 0  9995
2 59221  53.1654  20.4583 0000869 179.8273 180.2733 15.39633197 22440
STARLINK-31490          
1 59222U 24046X   24210.20698819  .00000282  00000+0  17017-4 0  9999
2 59222  53.1623  18.6393 0000586  51.7591 308.3467 15.39630857 22494
STARLINK-31420          
1 59223U 24046Y   24209.89137654  .00000273  00000+0  16787-4 0  9991
2 59223  53.1594  20.2251 0000746  99.5670 260.5419 15.39619652 22485
STARLINK-31304          
1 59231U 24049A   24209.59726530 -.00000964  00000+0 -15838-4 0  9992
2 59231  42.9934 260.7899 0000501 113.7878 246.3031 15.40677791 21857
STARLINK-31305          
1 59232U 24049B   24209.49658054 -.00000175  00000+0  30893-5 0  9999
2 59232  43.0024 260.8668 0001687 274.3999  85.6665 15.40688557 21858
STARLINK-31459          
1 59233U 24049C   24209.50106317 -.00007041  00000+0 -16159-3 0  9999
2 59233  43.0001 260.9040 0001584 268.0935  91.9740 15.40672279 21853
STARLINK-31438          
1 59234U 24049D   24209.46087636  .00002398  00000+0  64662-4 0  9998
2 59234  42.9972 261.4647 0000357 261.3298  98.7518 15.40692876 21845
STARLINK-31467          
1 59235U 24049E   24209.50330463 -.00001280  00000+0 -23395-4 0  9992
2 59235  42.9992 260.9187 0001576 269.7818  90.2858 15.40675512 21869
STARLINK-31444          
1 59236U 24049F   24209.59857477 -.00004229  00000+0 -94053-4 0  9996
2 59236  43.0017 257.2444 0002764 255.8103 104.2446 15.40684085 21895
